[{"OBJECT_NAME":"STARLINK-2757","OBJECT_ID":"2021-041BD","EPOCH":"2026-03-09T12:11:51.343296","MEAN_MOTION":15.06381389,"ECCENTRICITY":0.00014284,"INCLINATION":53.0535,"RA_OF_ASC_NODE":142.4329,"ARG_OF_PERICENTER":86.9134,"MEAN_ANOMALY":273.2018,"EPHEMERIS_TYPE":0,"CLASSIFICATION_TYPE":"U","NORAD_CAT_ID":48604,"ELEMENT_SET_NO":999,"REV_AT_EPOCH":26630,"BSTAR":0.00016192446,"MEAN_MOTION_DOT":2.13e-5,"MEAN_MOTION_DDOT":0},{"OBJECT_NAME":"CZ-6A DEB","OBJECT_ID":"2024-140TY","EPOCH":"2026-03-09T15:25:48.532512","MEAN_MOTION":14.77098477,"ECCENTRICITY":0.0162256,"INCLINATION":89.1158,"RA_OF_ASC_NODE":288.8548,"ARG_OF_PERICENTER":182.348,"MEAN_ANOMALY":177.7001,"EPHEMERIS_TYPE":0,"CLASSIFICATION_TYPE":"U","NORAD_CAT_ID":61311,"ELEMENT_SET_NO":999,"REV_AT_EPOCH":8223,"BSTAR":0.00066942,"MEAN_MOTION_DOT":5.907e-5,"MEAN_MOTION_DDOT":0}]
